IRIDIUM 921             
1 24873U 97034E   24229.17036863  .00058657  00000+0  12709-2 0  9991
2 24873  86.3757 258.3083 0004302  64.8295 295.3407 15.44198011484420
IRIDIUM 26              
1 24903U 97043A   24229.09768222  .00001419  00000+0  47744-3 0  9999
2 24903  86.3924 238.6088 0002401  85.9827 274.1645 14.36493166412934
IRIDIUM 22              
1 24907U 97043E   24229.40890086  .00001407  00000+0  48387-3 0  9993
2 24907  86.3925 241.7630 0002271  91.1164 269.0293 14.35377934413043
DUMMY MASS 1            
1 24925U 97048A   24229.45004597  .00001408  00000+0  15658-3 0  9993
2 24925  86.3313 276.1406 0008355 132.9491 227.2436 14.86347310459858
DUMMY MASS 2            
1 24926U 97048B   24229.22714925  .00001368  00000+0  15298-3 0  9997
2 24926  86.3315 277.7982 0008762 144.0990 216.0825 14.86103953459601
IRIDIUM 29              
1 24944U 97051A   24229.53223981  .00001364  00000+0  46473-3 0  9997
2 24944  86.3916 271.6003 0002313  98.0662 262.0797 14.35831982409546
IRIDIUM 33              
1 24946U 97051C   24229.54632533  .00000905  00000+0  31447-3 0  9992
2 24946  86.3830 270.8421 0007891   9.1800 350.9538 14.34457368409069
IRIDIUM 28              
1 24948U 97051E   24229.21750315  .00001358  00000+0  45366-3 0  9995
2 24948  86.3921 269.4198 0002354  81.2082 278.9382 14.36786586410112
